STARLINK-37153          
1 68664U 26077C   26112.61364161  .00108287  00000+0  71589-3 0  9990
2 68664  97.2841 343.6567 0001013  77.8953 282.2426 15.75248746  1827
STARLINK-37171          
1 68665U 26077D   26112.61150921  .00068728  00000+0  45795-3 0  9993
2 68665  97.2840 343.6585 0000954  90.5331 269.6043 15.75190649  1824
STARLINK-37109          
1 68666U 26077E   26112.54762427  .00043681  00000+0  29166-3 0  9991
2 68666  97.2839 343.5933 0000886 107.8947 252.2414 15.75235660  1810
STARLINK-36295          
1 68667U 26077F   26112.54692508  .00114119  00000+0  75498-3 0  9998
2 68667  97.2837 343.5934 0002325  41.5656 318.5786 15.75213048  1815
STARLINK-37221          
1 68668U 26077G   26112.60167626 -.00745143  00000+0 -51406-2 0  9995
2 68668  97.2833 343.6720 0000752 345.3025  14.8219 15.76508606  1829
STARLINK-37302          
1 68669U 26077H   26112.54409477  .00093814  00000+0  62147-3 0  9996
2 68669  97.2840 343.5987 0001439  91.6182 268.5248 15.75244778  1815
STARLINK-37298          
1 68670U 26077J   26112.54516391 -.00167285  00000+0 -11415-2 0  9999
2 68670  97.2837 343.5952 0001857  97.3323 262.8153 15.75212679  1816
STARLINK-37224          
1 68671U 26077K   26112.54339029 -.00809584  00000+0 -57947-2 0  9996
2 68671  97.2837 343.5979 0001556 119.7028 240.4392 15.75837288  1819
STARLINK-37296          
1 68672U 26077L   26112.54303764 -.00057493  00000+0 -38620-3 0  9996
2 68672  97.2837 343.5984 0001564  82.3032 277.8410 15.75247778  1819
STARLINK-37316          
1 68673U 26077M   26112.47881293 -.00217299  00000+0 -14919-2 0  9993
2 68673  97.2837 343.5333 0001408 121.8289 238.3114 15.75211642  1801
STARLINK-36672          
1 68674U 26077N   26112.54091225 -.00554785  00000+0 -39280-2 0  9992
2 68674  97.2833 343.6014 0001543 118.0979 242.0442 15.75406943  1816
STARLINK-36669          
1 68675U 26077P   26112.53986544 -.01027660  00000+0 -75460-2 0  9997
2 68675  97.2832 343.6023 0000804 104.5030 255.6324 15.75434095  1811
STARLINK-37312          
1 68676U 26077Q   26112.53564513 -.00716079  00000+0 -50005-2 0  9992
2 68676  97.2833 343.6081 0002580  14.4970 345.6370 15.76140300  1817
STARLINK-36168          
1 68677U 26077R   26112.60127819 -.00784318  00000+0 -55498-2 0  9997
2 68677  97.2827 343.6715 0000965 103.0129 257.1245 15.76035712  1820
STARLINK-37122          
1 68678U 26077S   26112.53669029 -.00678357  00000+0 -47821-2 0  9990
2 68678  97.2827 343.6062 0004547   6.1830 353.9491 15.75803590  1811
STARLINK-37310          
1 68679U 26077T   26112.59968846 -.00770903  00000+0 -51655-2 0  9996
2 68679  97.2832 343.6738 0000794 121.8397 238.2947 15.77233980  1825
