[{"OBJECT_NAME":"STARLINK-37153","OBJECT_ID":"2026-077C","EPOCH":"2026-04-22T14:43:38.635104","MEAN_MOTION":15.75248746,"ECCENTRICITY":0.0001013,"INCLINATION":97.2841,"RA_OF_ASC_NODE":343.6567,"ARG_OF_PERICENTER":77.8953,"MEAN_ANOMALY":282.2426,"EPHEMERIS_TYPE":0,"CLASSIFICATION_TYPE":"U","NORAD_CAT_ID":68664,"ELEMENT_SET_NO":999,"REV_AT_EPOCH":182,"BSTAR":0.00071589,"MEAN_MOTION_DOT":0.00108287,"MEAN_MOTION_DDOT":0},{"OBJECT_NAME":"STARLINK-37171","OBJECT_ID":"2026-077D","EPOCH":"2026-04-22T14:40:34.395744","MEAN_MOTION":15.75190649,"ECCENTRICITY":9.54e-5,"INCLINATION":97.284,"RA_OF_ASC_NODE":343.6585,"ARG_OF_PERICENTER":90.5331,"MEAN_ANOMALY":269.6043,"EPHEMERIS_TYPE":0,"CLASSIFICATION_TYPE":"U","NORAD_CAT_ID":68665,"ELEMENT_SET_NO":999,"REV_AT_EPOCH":182,"BSTAR":0.00045795,"MEAN_MOTION_DOT":0.00068728,"MEAN_MOTION_DDOT":0},{"OBJECT_NAME":"STARLINK-37109","OBJECT_ID":"2026-077E","EPOCH":"2026-04-22T13:08:34.736928","MEAN_MOTION":15.7523566,"ECCENTRICITY":8.86e-5,"INCLINATION":97.2839,"RA_OF_ASC_NODE":343.5933,"ARG_OF_PERICENTER":107.8947,"MEAN_ANOMALY":252.2414,"EPHEMERIS_TYPE":0,"CLASSIFICATION_TYPE":"U","NORAD_CAT_ID":68666,"ELEMENT_SET_NO":999,"REV_AT_EPOCH":181,"BSTAR":0.00029166,"MEAN_MOTION_DOT":0.00043681,"MEAN_MOTION_DDOT":0},{"OBJECT_NAME":"STARLINK-36295","OBJECT_ID":"2026-077F","EPOCH":"2026-04-22T13:07:34.326912","MEAN_MOTION":15.75213048,"ECCENTRICITY":0.0002325,"INCLINATION":97.2837,"RA_OF_ASC_NODE":343.5934,"ARG_OF_PERICENTER":41.5656,"MEAN_ANOMALY":318.5786,"EPHEMERIS_TYPE":0,"CLASSIFICATION_TYPE":"U","NORAD_CAT_ID":68667,"ELEMENT_SET_NO":999,"REV_AT_EPOCH":181,"BSTAR":0.00075498,"MEAN_MOTION_DOT":0.00114119,"MEAN_MOTION_DDOT":0},{"OBJECT_NAME":"STARLINK-37221","OBJECT_ID":"2026-077G","EPOCH":"2026-04-22T14:26:24.828864","MEAN_MOTION":15.76508606,"ECCENTRICITY":7.52e-5,"INCLINATION":97.2833,"RA_OF_ASC_NODE":343.672,"ARG_OF_PERICENTER":345.3025,"MEAN_ANOMALY":14.8219,"EPHEMERIS_TYPE":0,"CLASSIFICATION_TYPE":"U","NORAD_CAT_ID":68668,"ELEMENT_SET_NO":999,"REV_AT_EPOCH":182,"BSTAR":-0.0051406,"MEAN_MOTION_DOT":-0.00745143,"MEAN_MOTION_DDOT":0},{"OBJECT_NAME":"STARLINK-37302","OBJECT_ID":"2026-077H","EPOCH":"2026-04-22T13:03:29.788128","MEAN_MOTION":15.75244778,"ECCENTRICITY":0.0001439,"INCLINATION":97.284,"RA_OF_ASC_NODE":343.5987,"ARG_OF_PERICENTER":91.6182,"MEAN_ANOMALY":268.5248,"EPHEMERIS_TYPE":0,"CLASSIFICATION_TYPE":"U","NORAD_CAT_ID":68669,"ELEMENT_SET_NO":999,"REV_AT_EPOCH":181,"BSTAR":0.00062147,"MEAN_MOTION_DOT":0.00093814,"MEAN_MOTION_DDOT":0},{"OBJECT_NAME":"STARLINK-37298","OBJECT_ID":"2026-077J","EPOCH":"2026-04-22T13:05:02.161824","MEAN_MOTION":15.75212679,"ECCENTRICITY":0.0001857,"INCLINATION":97.2837,"RA_OF_ASC_NODE":343.5952,"ARG_OF_PERICENTER":97.3323,"MEAN_ANOMALY":262.8153,"EPHEMERIS_TYPE":0,"CLASSIFICATION_TYPE":"U","NORAD_CAT_ID":68670,"ELEMENT_SET_NO":999,"REV_AT_EPOCH":181,"BSTAR":-0.0011415,"MEAN_MOTION_DOT":-0.00167285,"MEAN_MOTION_DDOT":0},{"OBJECT_NAME":"STARLINK-37224","OBJECT_ID":"2026-077K","EPOCH":"2026-04-22T13:02:28.921056","MEAN_MOTION":15.75837288,"ECCENTRICITY":0.0001556,"INCLINATION":97.2837,"RA_OF_ASC_NODE":343.5979,"ARG_OF_PERICENTER":119.7028,"MEAN_ANOMALY":240.4392,"EPHEMERIS_TYPE":0,"CLASSIFICATION_TYPE":"U","NORAD_CAT_ID":68671,"ELEMENT_SET_NO":999,"REV_AT_EPOCH":181,"BSTAR":-0.0057947,"MEAN_MOTION_DOT":-0.00809584,"MEAN_MOTION_DDOT":0},{"OBJECT_NAME":"STARLINK-37296","OBJECT_ID":"2026-077L","EPOCH":"2026-04-22T13:01:58.452096","MEAN_MOTION":15.75247778,"ECCENTRICITY":0.0001564,"INCLINATION":97.2837,"RA_OF_ASC_NODE":343.5984,"ARG_OF_PERICENTER":82.3032,"MEAN_ANOMALY":277.841,"EPHEMERIS_TYPE":0,"CLASSIFICATION_TYPE":"U","NORAD_CAT_ID":68672,"ELEMENT_SET_NO":999,"REV_AT_EPOCH":181,"BSTAR":-0.0003862,"MEAN_MOTION_DOT":-0.00057493,"MEAN_MOTION_DDOT":0},{"OBJECT_NAME":"STARLINK-37316","OBJECT_ID":"2026-077M","EPOCH":"2026-04-22T11:29:29.437152","MEAN_MOTION":15.75211642,"ECCENTRICITY":0.0001408,"INCLINATION":97.2837,"RA_OF_ASC_NODE":343.5333,"ARG_OF_PERICENTER":121.8289,"MEAN_ANOMALY":238.3114,"EPHEMERIS_TYPE":0,"CLASSIFICATION_TYPE":"U","NORAD_CAT_ID":68673,"ELEMENT_SET_NO":999,"REV_AT_EPOCH":180,"BSTAR":-0.0014919,"MEAN_MOTION_DOT":-0.00217299,"MEAN_MOTION_DDOT":0},{"OBJECT_NAME":"STARLINK-36672","OBJECT_ID":"2026-077N","EPOCH":"2026-04-22T12:58:54.818400","MEAN_MOTION":15.75406943,"ECCENTRICITY":0.0001543,"INCLINATION":97.2833,"RA_OF_ASC_NODE":343.6014,"ARG_OF_PERICENTER":118.0979,"MEAN_ANOMALY":242.0442,"EPHEMERIS_TYPE":0,"CLASSIFICATION_TYPE":"U","NORAD_CAT_ID":68674,"ELEMENT_SET_NO":999,"REV_AT_EPOCH":181,"BSTAR":-0.003928,"MEAN_MOTION_DOT":-0.00554785,"MEAN_MOTION_DDOT":0},{"OBJECT_NAME":"STARLINK-36669","OBJECT_ID":"2026-077P","EPOCH":"2026-04-22T12:57:24.374016","MEAN_MOTION":15.75434095,"ECCENTRICITY":8.04e-5,"INCLINATION":97.2832,"RA_OF_ASC_NODE":343.6023,"ARG_OF_PERICENTER":104.503,"MEAN_ANOMALY":255.6324,"EPHEMERIS_TYPE":0,"CLASSIFICATION_TYPE":"U","NORAD_CAT_ID":68675,"ELEMENT_SET_NO":999,"REV_AT_EPOCH":181,"BSTAR":-0.007546,"MEAN_MOTION_DOT":-0.0102766,"MEAN_MOTION_DDOT":0},{"OBJECT_NAME":"STARLINK-37312","OBJECT_ID":"2026-077Q","EPOCH":"2026-04-22T12:51:19.739232","MEAN_MOTION":15.761403,"ECCENTRICITY":0.000258,"INCLINATION":97.2833,"RA_OF_ASC_NODE":343.6081,"ARG_OF_PERICENTER":14.497,"MEAN_ANOMALY":345.637,"EPHEMERIS_TYPE":0,"CLASSIFICATION_TYPE":"U","NORAD_CAT_ID":68676,"ELEMENT_SET_NO":999,"REV_AT_EPOCH":181,"BSTAR":-0.0050005,"MEAN_MOTION_DOT":-0.00716079,"MEAN_MOTION_DDOT":0},{"OBJECT_NAME":"STARLINK-36168","OBJECT_ID":"2026-077R","EPOCH":"2026-04-22T14:25:50.435616","MEAN_MOTION":15.76035712,"ECCENTRICITY":9.65e-5,"INCLINATION":97.2827,"RA_OF_ASC_NODE":343.6715,"ARG_OF_PERICENTER":103.0129,"MEAN_ANOMALY":257.1245,"EPHEMERIS_TYPE":0,"CLASSIFICATION_TYPE":"U","NORAD_CAT_ID":68677,"ELEMENT_SET_NO":999,"REV_AT_EPOCH":182,"BSTAR":-0.0055498,"MEAN_MOTION_DOT":-0.00784318,"MEAN_MOTION_DDOT":0},{"OBJECT_NAME":"STARLINK-37122","OBJECT_ID":"2026-077S","EPOCH":"2026-04-22T12:52:50.041056","MEAN_MOTION":15.7580359,"ECCENTRICITY":0.0004547,"INCLINATION":97.2827,"RA_OF_ASC_NODE":343.6062,"ARG_OF_PERICENTER":6.183,"MEAN_ANOMALY":353.9491,"EPHEMERIS_TYPE":0,"CLASSIFICATION_TYPE":"U","NORAD_CAT_ID":68678,"ELEMENT_SET_NO":999,"REV_AT_EPOCH":181,"BSTAR":-0.0047821,"MEAN_MOTION_DOT":-0.00678357,"MEAN_MOTION_DDOT":0},{"OBJECT_NAME":"STARLINK-37310","OBJECT_ID":"2026-077T","EPOCH":"2026-04-22T14:23:33.082944","MEAN_MOTION":15.7723398,"ECCENTRICITY":7.94e-5,"INCLINATION":97.2832,"RA_OF_ASC_NODE":343.6738,"ARG_OF_PERICENTER":121.8397,"MEAN_ANOMALY":238.2947,"EPHEMERIS_TYPE":0,"CLASSIFICATION_TYPE":"U","NORAD_CAT_ID":68679,"ELEMENT_SET_NO":999,"REV_AT_EPOCH":182,"BSTAR":-0.0051655,"MEAN_MOTION_DOT":-0.00770903,"MEAN_MOTION_DDOT":0}]
